RASSVET-3 3
1 68362U 26061C   26109.91496134  .00059379  13625-6  18027-3 0  9992
2 68362  82.2974  77.8791 0020884 330.3726  29.6361 15.91512292  4327
RASSVET-3 4
1 68363U 26061D   26109.66437064  .00144930  64208-5  43845-3 0  9998
2 68363  82.2976  78.1688 0021250 330.4609  29.5461 15.91634661  4288
RASSVET-3 5
1 68364U 26061E   26109.66332826  .00118623  39139-5  35750-3 0  9990
2 68364  82.2965  78.1647 0020837 329.9538  30.0538 15.91713015  4289
RASSVET-3 6
1 68365U 26061F   26109.66133598  .00125753  45539-5  37606-3 0  9991
2 68365  82.2970  78.1620 0020621 330.1481  29.8614 15.91874042  4288
RASSVET-3 7
1 68366U 26061G   26109.66278118  .00115126  36198-5  34674-3 0  9996
2 68366  82.2965  78.1640 0020638 330.0333  29.9757 15.91730912  4284
RASSVET-3 8
1 68367U 26061H   26109.66305691  .00127141  46742-5  38224-3 0  9995
2 68367  82.2971  78.1647 0020775 329.6969  30.3101 15.91766286  4282
RASSVET-3 9
1 68368U 26061J   26109.78339404  .00128773  48095-5  38858-3 0  9996
2 68368  82.3006  78.0179 0025322 330.1125  29.8700 15.91507463  4307
RASSVET-3 10
1 68369U 26061K   26109.66293897  .00129642  49004-5  39172-3 0  9996
2 68369  82.2970  78.1650 0020701 329.9519  30.0564 15.91673298  4280
RASSVET-3 11
1 68370U 26061L   26109.66232545  .00123867  43717-5  37404-3 0  9995
2 68370  82.2973  78.1639 0020486 329.7640  30.2449 15.91690255  4281
RASSVET-3 12
1 68371U 26061M   26109.65952315  .00132319  51876-5  39084-3 0  9992
2 68371  82.2968  78.1593 0020160 329.6114  30.3988 15.92131656  4284
RASSVET-3 13
1 68372U 26061N   26109.66058141  .00147540  65678-5  48275-3 0  9997
2 68372  82.2962  78.1602 0019173 331.0185  29.0021 15.90181154  4286
RASSVET-3 14
1 68373U 26061P   26109.78399003  .00148543  66803-5  48411-3 0  9993
2 68373  82.2941  78.0122 0019178 334.9045  25.1293 15.90259154  4309
RASSVET-3 15
1 68374U 26061Q   26109.65920350  .00111934  32823-5  36563-3 0  9999
2 68374  82.2968  78.1581 0018702 330.2220  29.7986 15.90214465  4287
RASSVET-3 16
1 68375U 26061R   26109.64546708  .00074307  00000+0  34182-3 0  9993
2 68375  82.2955  78.2987 0018074 340.1233  19.9328 15.83104905  4270
